#dP2022  4 17  0  0  0.00000000      96 __u+U ITR00 FIT  IAC
## 2206      0.00000000   900.00000000 59686 0.0000000000000
+  117   C06C07C08C09C10C11C12C13C14C16C19C20C21C22C23C24C25
+        C26C27C28C29C30C32C33C34C35C36C37C38C39C40C41C42C43
+        C44C45C46E01E02E03E04E05E07E08E09E10E11E12E13E14E15
+        E18E19E21E24E25E26E27E30E31E33E34E36G01G02G03G04G05
+        G06G07G08G09G10G11G12G13G14G15G16G17G18G19G20G21G22
+        G23G24G25G26G27G28G29G30G31G32J02J03R01R02R03R04R05
+        R07R08R09R11R12R13R14R15R17R18R19R20R21R22R24  0  0
++         7  9  7  7  8  7  7  7  7  8  6  7  7  6  7  7  7
++         7  7  6  6  8  7  6  8  8  6  7  8  8  8  7  6  7
++         6  7  8  7  6  7  6  6  6  6  7  6  6  7  5  7  6
++         6  7  7  7  7  5  7  6  7  7  6  7  5  7  7  7  7
++         6  7  6  7  6  7  6  6  7  7  6  5  6  6  6  7  7
++         5  7  6  6  6  7  8  6  6  6  9  8  6  6  7  7  7
++         6  7  7  7  7  7  7  7  7  7  7  6  7  7  8  0  0
%c M  cc GPS ccc cccc cccc cccc cccc ccccc ccccc ccccc ccccc
%c cc cc ccc ccc cccc cccc cccc cccc ccccc ccccc ccccc ccccc
%f  0.0000000  0.000000000  0.00000000000  0.000000000000000
%f  0.0000000  0.000000000  0.00000000000  0.000000000000000
%i    0    0    0    0      0      0      0      0         0
%i    0    0    0    0      0      0      0      0         0
/* INFORMATION & ANALYSIS CENTER (IAC)      ULTRA-RAPID DATA
/* S/V CLOCKS ARE ALIGNED TO GNSS TIME                      
/* G:C1WC2W R:C1PC2P E:C1XC5X C:C2IC6I J:C1CC2S             
/* PCV:IGS14_2196 OL/AL:FES2004  NONE     YN ORB:CoN CLK:CoN
*  2022 04 17 16 45  0.00000000
PC06  -4846.748187  38778.722379  16118.982447   -187.137196
PC07 -10074.894810  25181.316810 -32297.831613     -5.574572
PC08 -20406.241846  32224.038242  17831.363731    264.183094
PC09    864.490891  41947.195435   6666.809438   -705.215694
PC10  -1044.596455  26998.205263 -32078.951312    135.907262
PC11  11078.209749  23845.694293   9372.042416    297.602091
PC12    152.774914  26651.734409  -8227.139521   -627.271721
PC13 -11367.370189  32127.662289  24774.963382    -58.003435
PC14  18421.205362  15620.344178  13954.169974    459.199858
PC16  -6089.764501  37569.032046  18588.533592    120.458848
PC19 -24945.726466 -11330.212057  -5331.316975    877.439147
PC20 -10926.744487 -17067.360568 -19178.394983   -881.218288
PC21 -10669.960847  12866.746717  22372.996819   -129.496470
PC22 -25117.243658   1132.404487  12148.045436   -968.548484
PC23  23252.095448 -10305.476085 -11486.304430   -932.484096
PC24  -1503.556868  20196.186436 -19200.487508   -954.360786
PC25  16401.859043   5833.546530 -21822.814768   -749.641048
PC26 -15984.313435  21943.938432  -6391.376926    750.437900
PC27   6161.590025 -22321.576530  15536.369740    709.312247
PC28  15172.124944  -4830.198568  22916.848112     56.396000
PC29 -16011.463870 -15536.386430 -16769.325363    542.634115
PC30  -7075.607344 -26978.701076   -202.805748    497.089090
PC32  10579.254601 -12933.154226 -22326.601293   -963.117532
PC33  24929.985909  11266.268277   5464.545664   -967.569950
PC34   7646.068252  26828.904174   1146.917164   -423.474953
PC35 -15349.276362   4363.190181 -22905.032486    233.143018
PC36 -15880.319250  -6703.205021  21966.356062   -964.096234
PC37  17274.807902 -21280.468212   5313.192097   -922.497263
PC38 -24452.889368  32635.893849  10455.882905    225.819560
PC39  -8369.778404  33800.034160  23922.254433     34.945356
PC40 -14452.686585  18626.755659 -34995.382306    261.634447
PC41  25302.715306   -868.568495 -11677.351700   -967.237160
PC42   9775.858979  17171.057321  19746.764762   -952.570515
PC43  15860.686833  16257.096931  16220.571186   -929.403906
PC44  -5603.786007  22448.182473 -15642.513370    630.845451
PC45 -23206.158915  10572.041996  11308.976698    733.798544
PC46    176.466685 -19498.026735  19976.680984   -276.975808
PE01  15031.721828 -16917.549096  19079.804540   -618.207824
PE02 -14838.489533  16952.255548 -19195.194571    293.437393
PE03  -3260.987216  19290.693752  22212.620987   -548.999391
PE04 -14216.215484 -24276.660734  -9194.697292  -1008.609385
PE05 -19142.706389   2865.612828  22402.954411   -189.961119
PE07  23655.695530  14997.237855  -9548.361925   -659.557416
PE08  14561.687361  24154.271069   8969.549335   -513.941810
PE09 -23703.019898 -14823.089198   9757.775668   -487.535426
PE10  -9114.007832 -18388.691509 -21336.922990   -507.306752
PE11 -14412.155919  -7821.718894 -24651.718963   3931.343381
PE12  -2661.218084 -25500.208688 -14773.833744   4658.164289
PE13  14062.035315   8566.656816  24600.977685    428.087596
PE14  14689.782966  -4750.920287  17961.701402  -1817.413313
PE15   2567.735763  25589.088144  14670.981000    751.102304
PE18 -21623.852033   2813.172199 -23844.176218  -1553.538225
PE19   5458.128799 -17651.612242 -23113.662274  -3172.959439
PE21  27819.547196  -9382.262858   3793.011676   -729.007339
PE24 -24715.212470  -4994.371321  15467.856044   -566.156389
PE25 -27897.458199   9225.880842  -3542.407794   -570.739932
PE26  17280.927087 -14262.600965  19340.827566  -1041.259850
PE27  25456.666187   4036.619237 -14567.805604   -278.401777
PE30   6968.186981  15412.423102 -24305.671088   -438.402672
PE31  -8122.917767 -14974.578835  24208.434679   -495.218088
PE33  10390.548455 -27436.554435   3869.158528   -457.522980
PE34 -10235.944400  27531.282119  -3675.829663   -512.540165
PE36 -17224.176260  13389.967856 -20011.560518   -361.014327
PG01  13847.845765 -21602.514769   5795.419779    382.882304
PG02 -16042.930705   3702.030536 -20221.731982   -653.146908
PG03  17201.364429 -12783.270676 -15718.616329   -210.410397
PG04   7640.840858 -14543.988958 -20842.397136   -175.130237
PG05 -26067.762739   5236.747236   1549.543874    -78.643316
PG06  -9229.963108 -13378.918174 -20923.827132    270.174212
PG07   3404.612754 -24483.061984   9406.691767    320.447699
PG08  14750.812277  -5291.017555  21450.712442    -64.339855
PG09  -2741.057351 -21452.701827 -15461.278113   -343.089215
PG10  12998.800363  12141.377623  19963.942865   -382.521625
PG11 -16930.690108   2237.420615 -20338.979088    -38.494053
PG12 -20784.983627  10056.556499 -13281.202061   -201.804401
PG13 -17627.632167  -4546.973589  19248.204146    295.838410
PG14 -11396.258040 -13343.487977  19956.180025   -103.141260
PG15 -14027.109269   7789.484214  20790.023425    -68.205584
PG16  26698.537161   1026.362338  -2521.692303   -492.573365
PG17 -13813.988969 -22640.140044   1165.649712    601.556035
PG18  -4648.281549  24589.146968   8731.606727    193.136345
PG19 -16880.973418 -19563.894267  -6841.851522    145.622595
PG20 -24995.432535    495.415084  -8605.162114    515.783067
PG21  16507.682376 -13324.865658  16199.102845    160.517361
PG22  17889.121400  17705.305596  -8350.903789    244.867626
PG23    548.969124  15103.526168  21828.005850    -15.641780
PG24 -14437.754072  19529.158052   9954.301763    255.235990
PG25  -7349.521971  15470.649321 -20518.362924    313.202670
PG26  22402.996954   6033.000615 -13291.040244    199.304547
PG27  19479.152085   7274.402332  16542.533785    185.238336
PG28 -18964.510484 -10407.526335  15767.907768    370.437179
PG29    308.266374  20942.104058 -16349.005214   -504.090637
PG30  -3477.365931 -20856.763904  16000.396739   -524.184644
PG31  11582.344052  10898.584526 -21336.469408   -173.821787
PG32  16647.740548  20792.853375  -1060.780585   -107.450695
PJ02 -34791.221445  18793.986029  -9992.388910     -2.794989
PJ03 -20240.796026  28357.833680 -19154.949414     -1.591314
PR01 -21823.545621  -3955.195680  12621.646982      7.868071
PR02  -7406.536257   8336.943084  22985.367586    515.820782
PR03  10068.166002  14944.599265  18128.899224     55.090905
PR04  21623.103819  13134.214948   3322.232145    137.175144
PR05  21322.146492   4220.216701 -13350.773148     91.315650
PR07 -10705.160974 -14996.246397 -17573.564911     33.973632
PR08 -21733.789350 -12966.759439  -3028.205604    -64.663888
PR09  17096.251626 -16669.516296   8883.972133     50.292635
PR11 -12881.732898  -3787.910857  21698.517224     40.963838
PR12 -22060.979534   9181.046416   8922.143606     17.975498
PR13 -17985.396375  16349.957922  -7753.691651    -21.013198
PR14  -2633.765480  13948.124308 -21189.550682     76.625868
PR15  13534.662953   3449.666562 -21328.303217     96.761155
PR17   2229.768648  25243.899190   2764.287487    518.347602
PR18   8431.057958  16403.953350  17661.494606    113.888558
PR19  10334.415825    379.984970  23314.221373   -185.722338
PR20   6510.896954 -19680.516993  14834.473227    -68.818162
PR21  -2751.770978 -25010.832528  -4256.064332   -294.083405
PR22  -8540.624377 -15554.342251 -18293.494028   -177.501337
PR24  -6050.449834  20357.077745 -14111.614937     89.527189
EOF
